{
  "links" : {
    "next" : "https://api.nasa.gov/neo/rest/v1/feed?start_date=2004-12-23&end_date=2004-12-23&detailed=true&api_key=t0TVs3DtDT2H8Oy2Zy8m2eVrNsAVKAexjcZXUckd",
    "prev" : "https://api.nasa.gov/neo/rest/v1/feed?start_date=2004-12-21&end_date=2004-12-21&detailed=true&api_key=t0TVs3DtDT2H8Oy2Zy8m2eVrNsAVKAexjcZXUckd",
    "self" : "https://api.nasa.gov/neo/rest/v1/feed?start_date=2004-12-22&end_date=2004-12-22&detailed=true&api_key=t0TVs3DtDT2H8Oy2Zy8m2eVrNsAVKAexjcZXUckd"
  },
  "element_count" : 4,
  "near_earth_objects" : {
    "2004-12-22" : [ {
      "links" : {
        "self" : "https://api.nasa.gov/neo/rest/v1/neo/3263615?api_key=t0TVs3DtDT2H8Oy2Zy8m2eVrNsAVKAexjcZXUckd"
      },
      "neo_reference_id" : "3263615",
      "name" : "(2004 XJ35)",
      "nasa_jpl_url" : "http://ssd.jpl.nasa.gov/sbdb.cgi?sstr=3263615",
      "absolute_magnitude_h" : 20.3,
      "estimated_diameter" : {
        "kilometers" : {
          "estimated_diameter_min" : 0.2315021222,
          "estimated_diameter_max" : 0.5176544822
        },
        "meters" : {
          "estimated_diameter_min" : 231.5021222103,
          "estimated_diameter_max" : 517.6544821978
        },
        "miles" : {
          "estimated_diameter_min" : 0.1438487052,
          "estimated_diameter_max" : 0.3216554833
        },
        "feet" : {
          "estimated_diameter_min" : 759.5214226325,
          "estimated_diameter_max" : 1698.3415313737
        }
      },
      "is_potentially_hazardous_asteroid" : false,
      "close_approach_data" : [ {
        "close_approach_date" : "2004-12-22",
        "epoch_date_close_approach" : 1103702400000,
        "relative_velocity" : {
          "kilometers_per_second" : "3.939883543",
          "kilometers_per_hour" : "14183.5807548144",
          "miles_per_hour" : "8813.1254973456"
        },
        "miss_distance" : {
          "astronomical" : "0.353690147",
          "lunar" : "137.5854644775",
          "kilometers" : "52911292",
          "miles" : "32877554"
        },
        "orbiting_body" : "Earth"
      } ],
      "orbital_data" : {
        "orbit_id" : "22",
        "orbit_determination_date" : "2017-04-06 09:11:43",
        "orbit_uncertainty" : "1",
        "minimum_orbit_intersection" : ".309118",
        "jupiter_tisserand_invariant" : "3.622",
        "epoch_osculation" : "2458000.5",
        "eccentricity" : ".389644373640963",
        "semi_major_axis" : "2.117284361173733",
        "inclination" : "7.645529031113458",
        "ascending_node_longitude" : "72.82713477189449",
        "orbital_period" : "1125.297130540054",
        "perihelion_distance" : "1.292296422444387",
        "perihelion_argument" : "7.60929762665142",
        "aphelion_distance" : "2.942272299903079",
        "perihelion_time" : "2457841.103800779792",
        "mean_anomaly" : "50.99331559810848",
        "mean_motion" : ".3199155051850425",
        "equinox" : "J2000"
      }
    }, {
      "links" : {
        "self" : "https://api.nasa.gov/neo/rest/v1/neo/3263792?api_key=t0TVs3DtDT2H8Oy2Zy8m2eVrNsAVKAexjcZXUckd"
      },
      "neo_reference_id" : "3263792",
      "name" : "(2004 XD51)",
      "nasa_jpl_url" : "http://ssd.jpl.nasa.gov/sbdb.cgi?sstr=3263792",
      "absolute_magnitude_h" : 25.0,
      "estimated_diameter" : {
        "kilometers" : {
          "estimated_diameter_min" : 0.02658,
          "estimated_diameter_max" : 0.0594346868
        },
        "meters" : {
          "estimated_diameter_min" : 26.58,
          "estimated_diameter_max" : 59.4346868419
        },
        "miles" : {
          "estimated_diameter_min" : 0.0165160412,
          "estimated_diameter_max" : 0.0369309908
        },
        "feet" : {
          "estimated_diameter_min" : 87.2047272,
          "estimated_diameter_max" : 194.9956979785
        }
      },
      "is_potentially_hazardous_asteroid" : false,
      "close_approach_data" : [ {
        "close_approach_date" : "2004-12-22",
        "epoch_date_close_approach" : 1103702400000,
        "relative_velocity" : {
          "kilometers_per_second" : "6.6092562976",
          "kilometers_per_hour" : "23793.3226715168",
          "miles_per_hour" : "14784.2454121989"
        },
        "miss_distance" : {
          "astronomical" : "0.0307613797",
          "lunar" : "11.9661769867",
          "kilometers" : "4601837",
          "miles" : "2859449"
        },
        "orbiting_body" : "Earth"
      } ],
      "orbital_data" : {
        "orbit_id" : "9",
        "orbit_determination_date" : "2017-04-06 09:11:43",
        "orbit_uncertainty" : "7",
        "minimum_orbit_intersection" : ".0262302",
        "jupiter_tisserand_invariant" : "5.129",
        "epoch_osculation" : "2458000.5",
        "eccentricity" : ".2405654836133161",
        "semi_major_axis" : "1.242814325179763",
        "inclination" : "6.794666308523415",
        "ascending_node_longitude" : "83.65336423302367",
        "orbital_period" : "506.0667484655428",
        "perihelion_distance" : ".9438360960013362",
        "perihelion_argument" : "54.27898924608102",
        "aphelion_distance" : "1.54179255435819",
        "perihelion_time" : "2457955.865157195190",
        "mean_anomaly" : "31.75182613450382",
        "mean_motion" : ".7113686111398638",
        "equinox" : "J2000"
      }
    }, {
      "links" : {
        "self" : "https://api.nasa.gov/neo/rest/v1/neo/3512278?api_key=t0TVs3DtDT2H8Oy2Zy8m2eVrNsAVKAexjcZXUckd"
      },
      "neo_reference_id" : "3512278",
      "name" : "(2010 FN)",
      "nasa_jpl_url" : "http://ssd.jpl.nasa.gov/sbdb.cgi?sstr=3512278",
      "absolute_magnitude_h" : 26.6,
      "estimated_diameter" : {
        "kilometers" : {
          "estimated_diameter_min" : 0.0127219879,
          "estimated_diameter_max" : 0.0284472297
        },
        "meters" : {
          "estimated_diameter_min" : 12.7219878539,
          "estimated_diameter_max" : 28.4472296503
        },
        "miles" : {
          "estimated_diameter_min" : 0.0079050743,
          "estimated_diameter_max" : 0.0176762835
        },
        "feet" : {
          "estimated_diameter_min" : 41.7388066307,
          "estimated_diameter_max" : 93.330808926
        }
      },
      "is_potentially_hazardous_asteroid" : false,
      "close_approach_data" : [ {
        "close_approach_date" : "2004-12-22",
        "epoch_date_close_approach" : 1103702400000,
        "relative_velocity" : {
          "kilometers_per_second" : "5.9134212251",
          "kilometers_per_hour" : "21288.3164104106",
          "miles_per_hour" : "13227.7319384576"
        },
        "miss_distance" : {
          "astronomical" : "0.2054026484",
          "lunar" : "79.9016265869",
          "kilometers" : "30727798",
          "miles" : "19093368"
        },
        "orbiting_body" : "Earth"
      } ],
      "orbital_data" : {
        "orbit_id" : "10",
        "orbit_determination_date" : "2017-04-06 08:58:07",
        "orbit_uncertainty" : "6",
        "minimum_orbit_intersection" : ".000820582",
        "jupiter_tisserand_invariant" : "6.111",
        "epoch_osculation" : "2458000.5",
        "eccentricity" : ".2109963631558617",
        "semi_major_axis" : ".9895831986652721",
        "inclination" : ".123647362647108",
        "ascending_node_longitude" : "161.5533644639227",
        "orbital_period" : "359.564574137851",
        "perihelion_distance" : ".7807847427067551",
        "perihelion_argument" : "126.0635263061669",
        "aphelion_distance" : "1.198381654623789",
        "perihelion_time" : "2457879.860943156557",
        "mean_anomaly" : "120.785148447325",
        "mean_motion" : "1.001210980984968",
        "equinox" : "J2000"
      }
    }, {
      "links" : {
        "self" : "https://api.nasa.gov/neo/rest/v1/neo/3739413?api_key=t0TVs3DtDT2H8Oy2Zy8m2eVrNsAVKAexjcZXUckd"
      },
      "neo_reference_id" : "3739413",
      "name" : "(2016 AU65)",
      "nasa_jpl_url" : "http://ssd.jpl.nasa.gov/sbdb.cgi?sstr=3739413",
      "absolute_magnitude_h" : 22.9,
      "estimated_diameter" : {
        "kilometers" : {
          "estimated_diameter_min" : 0.0699125232,
          "estimated_diameter_max" : 0.1563291544
        },
        "meters" : {
          "estimated_diameter_min" : 69.9125232246,
          "estimated_diameter_max" : 156.3291544087
        },
        "miles" : {
          "estimated_diameter_min" : 0.0434416145,
          "estimated_diameter_max" : 0.097138403
        },
        "feet" : {
          "estimated_diameter_min" : 229.3718026961,
          "estimated_diameter_max" : 512.8909429502
        }
      },
      "is_potentially_hazardous_asteroid" : false,
      "close_approach_data" : [ {
        "close_approach_date" : "2004-12-22",
        "epoch_date_close_approach" : 1103702400000,
        "relative_velocity" : {
          "kilometers_per_second" : "12.8047901383",
          "kilometers_per_hour" : "46097.2444979732",
          "miles_per_hour" : "28643.0350604212"
        },
        "miss_distance" : {
          "astronomical" : "0.2813291443",
          "lunar" : "109.4370422363",
          "kilometers" : "42086244",
          "miles" : "26151178"
        },
        "orbiting_body" : "Earth"
      } ],
      "orbital_data" : {
        "orbit_id" : "10",
        "orbit_determination_date" : "2017-04-06 08:29:19",
        "orbit_uncertainty" : "6",
        "minimum_orbit_intersection" : ".0187748",
        "jupiter_tisserand_invariant" : "7.076",
        "epoch_osculation" : "2458000.5",
        "eccentricity" : ".5617512822599331",
        "semi_major_axis" : ".8099258124717031",
        "inclination" : "3.744017549389499",
        "ascending_node_longitude" : "295.6919573997513",
        "orbital_period" : "266.2356980837815",
        "perihelion_distance" : ".3549489487803058",
        "perihelion_argument" : "338.0747994370951",
        "aphelion_distance" : "1.264902676163101",
        "perihelion_time" : "2458024.878160618130",
        "mean_anomaly" : "327.0362093224444",
        "mean_motion" : "1.352185310201008",
        "equinox" : "J2000"
      }
    } ]
  }
}